FENGYUN 1C DEB          
1 41828U 99025EYF 17345.66895102  .00001205  00000-0  67453-3 0  9991
2 41828  98.9728  39.9721 0067278 254.3399 105.0342 14.11536943 59741
